{"fetched_at":"2026-07-23T07:05:22.094Z","source":"https://celestrak.org/NORAD/elements/gp.php?GROUP=qianfan&FORMAT=JSON","constellation":"qianfan","records":[{"OBJECT_NAME":"QIANFAN-129","OBJECT_ID":"2026-104C","EPOCH":"2026-07-22T12:22:15.578112","CLASSIFICATION_TYPE":"U","MEAN_MOTION":13.54827952,"ECCENTRICITY":0.00108383,"INCLINATION":88.9903,"RA_OF_ASC_NODE":337.8295,"ARG_OF_PERICENTER":12.684,"MEAN_ANOMALY":347.4584,"EPHEMERIS_TYPE":0,"NORAD_CAT_ID":69075,"ELEMENT_SET_NO":999,"REV_AT_EPOCH":994,"BSTAR":-3.1883588,"MEAN_MOTION_DOT":-0.02048674,"MEAN_MOTION_DDOT":0},{"OBJECT_NAME":"QIANFAN-130","OBJECT_ID":"2026-104D","EPOCH":"2026-07-22T20:01:15.354336","CLASSIFICATION_TYPE":"U","MEAN_MOTION":13.51012838,"ECCENTRICITY":0.00017637,"INCLINATION":88.9907,"RA_OF_ASC_NODE":337.8576,"ARG_OF_PERICENTER":109.3871,"MEAN_ANOMALY":250.7471,"EPHEMERIS_TYPE":0,"NORAD_CAT_ID":69076,"ELEMENT_SET_NO":999,"REV_AT_EPOCH":995,"BSTAR":0.0001082044,"MEAN_MOTION_DOT":8.2e-7,"MEAN_MOTION_DDOT":0},{"OBJECT_NAME":"QIANFAN-131","OBJECT_ID":"2026-104E","EPOCH":"2026-07-22T20:34:34.595040","CLASSIFICATION_TYPE":"U","MEAN_MOTION":13.54209643,"ECCENTRICITY":0.00088349,"INCLINATION":88.9898,"RA_OF_ASC_NODE":337.8202,"ARG_OF_PERICENTER":354.9133,"MEAN_ANOMALY":5.1928,"EPHEMERIS_TYPE":0,"NORAD_CAT_ID":69077,"ELEMENT_SET_NO":999,"REV_AT_EPOCH":997,"BSTAR":0.000035204032,"MEAN_MOTION_DOT":3.6e-7,"MEAN_MOTION_DDOT":0},{"OBJECT_NAME":"QIANFAN-132","OBJECT_ID":"2026-104F","EPOCH":"2026-07-22T20:13:02.382816","CLASSIFICATION_TYPE":"U","MEAN_MOTION":13.51022128,"ECCENTRICITY":0.00018414,"INCLINATION":88.9903,"RA_OF_ASC_NODE":337.8766,"ARG_OF_PERICENTER":104.6323,"MEAN_ANOMALY":255.5032,"EPHEMERIS_TYPE":0,"NORAD_CAT_ID":69078,"ELEMENT_SET_NO":999,"REV_AT_EPOCH":994,"BSTAR":0.00011958393,"MEAN_MOTION_DOT":8.9e-7,"MEAN_MOTION_DDOT":0},{"OBJECT_NAME":"QIANFAN-133","OBJECT_ID":"2026-104G","EPOCH":"2026-07-22T21:06:33.199488","CLASSIFICATION_TYPE":"U","MEAN_MOTION":13.57839195,"ECCENTRICITY":0.0008953,"INCLINATION":88.9905,"RA_OF_ASC_NODE":337.8279,"ARG_OF_PERICENTER":346.3503,"MEAN_ANOMALY":13.7408,"EPHEMERIS_TYPE":0,"NORAD_CAT_ID":69079,"ELEMENT_SET_NO":999,"REV_AT_EPOCH":996,"BSTAR":0.00011515064,"MEAN_MOTION_DOT":9.5e-7,"MEAN_MOTION_DDOT":0},{"OBJECT_NAME":"QIANFAN-134","OBJECT_ID":"2026-104H","EPOCH":"2026-07-22T14:01:24.333888","CLASSIFICATION_TYPE":"U","MEAN_MOTION":13.52326923,"ECCENTRICITY":0.00138861,"INCLINATION":88.9905,"RA_OF_ASC_NODE":337.8756,"ARG_OF_PERICENTER":352.5497,"MEAN_ANOMALY":7.5447,"EPHEMERIS_TYPE":0,"NORAD_CAT_ID":69080,"ELEMENT_SET_NO":999,"REV_AT_EPOCH":992,"BSTAR":-3.3309142,"MEAN_MOTION_DOT":-0.02057541,"MEAN_MOTION_DDOT":0},{"OBJECT_NAME":"QIANFAN-135","OBJECT_ID":"2026-104J","EPOCH":"2026-07-22T15:16:45.709824","CLASSIFICATION_TYPE":"U","MEAN_MOTION":13.5100475,"ECCENTRICITY":0.00077466,"INCLINATION":88.9904,"RA_OF_ASC_NODE":337.8639,"ARG_OF_PERICENTER":353.1105,"MEAN_ANOMALY":6.9938,"EPHEMERIS_TYPE":0,"NORAD_CAT_ID":69081,"ELEMENT_SET_NO":999,"REV_AT_EPOCH":993,"BSTAR":0.000031833507,"MEAN_MOTION_DOT":3.3e-7,"MEAN_MOTION_DDOT":0},{"OBJECT_NAME":"QIANFAN-136","OBJECT_ID":"2026-104K","EPOCH":"2026-07-22T13:34:16.046400","CLASSIFICATION_TYPE":"U","MEAN_MOTION":13.49408453,"ECCENTRICITY":0.00110093,"INCLINATION":88.9894,"RA_OF_ASC_NODE":337.8725,"ARG_OF_PERICENTER":345.2293,"MEAN_ANOMALY":14.8534,"EPHEMERIS_TYPE":0,"NORAD_CAT_ID":69082,"ELEMENT_SET_NO":999,"REV_AT_EPOCH":992,"BSTAR":-3.4508867,"MEAN_MOTION_DOT":-0.02037335,"MEAN_MOTION_DDOT":0},{"OBJECT_NAME":"QIANFAN-137","OBJECT_ID":"2026-104L","EPOCH":"2026-07-22T19:45:59.194656","CLASSIFICATION_TYPE":"U","MEAN_MOTION":13.57833811,"ECCENTRICITY":0.0009919,"INCLINATION":88.9912,"RA_OF_ASC_NODE":337.7266,"ARG_OF_PERICENTER":357.7732,"MEAN_ANOMALY":2.3377,"EPHEMERIS_TYPE":0,"NORAD_CAT_ID":69083,"ELEMENT_SET_NO":999,"REV_AT_EPOCH":1002,"BSTAR":0.000091568267,"MEAN_MOTION_DOT":7.8e-7,"MEAN_MOTION_DDOT":0},{"OBJECT_NAME":"QIANFAN-138","OBJECT_ID":"2026-104M","EPOCH":"2026-07-22T21:18:10.488096","CLASSIFICATION_TYPE":"U","MEAN_MOTION":13.51015799,"ECCENTRICITY":0.00016827,"INCLINATION":88.99,"RA_OF_ASC_NODE":337.8439,"ARG_OF_PERICENTER":94.0435,"MEAN_ANOMALY":266.0909,"EPHEMERIS_TYPE":0,"NORAD_CAT_ID":69084,"ELEMENT_SET_NO":999,"REV_AT_EPOCH":996,"BSTAR":0.000045057052,"MEAN_MOTION_DOT":4.1e-7,"MEAN_MOTION_DDOT":0},{"OBJECT_NAME":"QIANFAN-139","OBJECT_ID":"2026-104N","EPOCH":"2026-07-22T13:53:15.061056","CLASSIFICATION_TYPE":"U","MEAN_MOTION":13.49476581,"ECCENTRICITY":0.00078905,"INCLINATION":88.9898,"RA_OF_ASC_NODE":337.8563,"ARG_OF_PERICENTER":341.3969,"MEAN_ANOMALY":18.6892,"EPHEMERIS_TYPE":0,"NORAD_CAT_ID":69085,"ELEMENT_SET_NO":999,"REV_AT_EPOCH":993,"BSTAR":-3.4420205,"MEAN_MOTION_DOT":-0.02034099,"MEAN_MOTION_DDOT":0},{"OBJECT_NAME":"QIANFAN-140","OBJECT_ID":"2026-104P","EPOCH":"2026-07-22T21:12:20.149056","CLASSIFICATION_TYPE":"U","MEAN_MOTION":13.51024716,"ECCENTRICITY":0.00016689,"INCLINATION":88.9903,"RA_OF_ASC_NODE":337.828,"ARG_OF_PERICENTER":89.1683,"MEAN_ANOMALY":270.966,"EPHEMERIS_TYPE":0,"NORAD_CAT_ID":69086,"ELEMENT_SET_NO":999,"REV_AT_EPOCH":997,"BSTAR":0.000043501646,"MEAN_MOTION_DOT":4e-7,"MEAN_MOTION_DDOT":0},{"OBJECT_NAME":"QIANFAN-141","OBJECT_ID":"2026-104Q","EPOCH":"2026-07-22T21:37:18.808896","CLASSIFICATION_TYPE":"U","MEAN_MOTION":13.55525402,"ECCENTRICITY":0.00077544,"INCLINATION":88.9898,"RA_OF_ASC_NODE":337.802,"ARG_OF_PERICENTER":353.3264,"MEAN_ANOMALY":6.7785,"EPHEMERIS_TYPE":0,"NORAD_CAT_ID":69087,"ELEMENT_SET_NO":999,"REV_AT_EPOCH":999,"BSTAR":0.00001540674,"MEAN_MOTION_DOT":2.3e-7,"MEAN_MOTION_DDOT":0},{"OBJECT_NAME":"QIANFAN-142","OBJECT_ID":"2026-104R","EPOCH":"2026-07-22T16:16:01.508736","CLASSIFICATION_TYPE":"U","MEAN_MOTION":13.50999098,"ECCENTRICITY":0.00083286,"INCLINATION":88.9899,"RA_OF_ASC_NODE":337.8154,"ARG_OF_PERICENTER":349.5737,"MEAN_ANOMALY":10.524,"EPHEMERIS_TYPE":0,"NORAD_CAT_ID":69088,"ELEMENT_SET_NO":999,"REV_AT_EPOCH":996,"BSTAR":0.000024752578,"MEAN_MOTION_DOT":2.8e-7,"MEAN_MOTION_DDOT":0},{"OBJECT_NAME":"QIANFAN-143","OBJECT_ID":"2026-104S","EPOCH":"2026-07-22T09:23:14.881344","CLASSIFICATION_TYPE":"U","MEAN_MOTION":13.57520307,"ECCENTRICITY":0.00091572,"INCLINATION":88.9908,"RA_OF_ASC_NODE":337.8481,"ARG_OF_PERICENTER":344.2099,"MEAN_ANOMALY":15.8769,"EPHEMERIS_TYPE":0,"NORAD_CAT_ID":69089,"ELEMENT_SET_NO":999,"REV_AT_EPOCH":992,"BSTAR":0.00011291294,"MEAN_MOTION_DOT":9.3e-7,"MEAN_MOTION_DDOT":0},{"OBJECT_NAME":"QIANFAN-144","OBJECT_ID":"2026-104T","EPOCH":"2026-07-22T19:55:18.442848","CLASSIFICATION_TYPE":"U","MEAN_MOTION":13.51021289,"ECCENTRICITY":0.00016713,"INCLINATION":88.9907,"RA_OF_ASC_NODE":337.8192,"ARG_OF_PERICENTER":99.9932,"MEAN_ANOMALY":260.1408,"EPHEMERIS_TYPE":0,"NORAD_CAT_ID":69090,"ELEMENT_SET_NO":999,"REV_AT_EPOCH":997,"BSTAR":0.00012305311,"MEAN_MOTION_DOT":9.1e-7,"MEAN_MOTION_DDOT":0}]}
