{"epoch":1784799577,"count":18318,"objects":[{"id":"69075","name":"QIANFAN-129","type":"PAYLOAD","l1":"1 69075U 26104C   26203.51545808 -.02048674  00000-0 -31884+1 0  9996","l2":"2 69075  88.9903 337.8295 0010838  12.6840 347.4584 13.54827952  9947"},{"id":"69076","name":"QIANFAN-130","type":"PAYLOAD","l1":"1 69076U 26104D   26203.83420549  .00000082  00000-0  10820-3 0  9993","l2":"2 69076  88.9907 337.8576 0001764 109.3871 250.7471 13.51012838  9958"},{"id":"69077","name":"QIANFAN-131","type":"PAYLOAD","l1":"1 69077U 26104E   26203.85734485  .00000036  00000-0  35204-4 0  9996","l2":"2 69077  88.9898 337.8202 0008835 354.9133   5.1928 13.54209643  9975"},{"id":"69078","name":"QIANFAN-132","type":"PAYLOAD","l1":"1 69078U 26104F   26203.84238869  .00000089  00000-0  11958-3 0  9998","l2":"2 69078  88.9903 337.8766 0001841 104.6323 255.5032 13.51022128  9941"},{"id":"69079","name":"QIANFAN-133","type":"PAYLOAD","l1":"1 69079U 26104G   26203.87955092  .00000095  00000-0  11515-3 0  9992","l2":"2 69079  88.9905 337.8279 0008953 346.3503  13.7408 13.57839195  9968"},{"id":"69080","name":"QIANFAN-134","type":"PAYLOAD","l1":"1 69080U 26104H   26203.58430942 -.02057541  00000-0 -33309+1 0  9998","l2":"2 69080  88.9905 337.8756 0013886 352.5497   7.5447 13.52326923  9927"},{"id":"69081","name":"QIANFAN-135","type":"PAYLOAD","l1":"1 69081U 26104J   26203.63664016  .00000033  00000-0  31834-4 0  9991","l2":"2 69081  88.9904 337.8639 0007747 353.1105   6.9938 13.51004750  9938"},{"id":"69082","name":"QIANFAN-136","type":"PAYLOAD","l1":"1 69082U 26104K   26203.56546350 -.02037335  00000-0 -34509+1 0  9991","l2":"2 69082  88.9894 337.8725 0011009 345.2293  14.8534 13.49408453  9923"},{"id":"69083","name":"QIANFAN-137","type":"PAYLOAD","l1":"1 69083U 26104L   26203.82360179  .00000078  00000-0  91568-4 0  9996","l2":"2 69083  88.9912 337.7266 0009919 357.7732   2.3377 13.57833811 10026"},{"id":"69084","name":"QIANFAN-138","type":"PAYLOAD","l1":"1 69084U 26104M   26203.88762139  .00000041  00000-0  45057-4 0  9997","l2":"2 69084  88.9900 337.8439 0001683  94.0435 266.0909 13.51015799  9960"},{"id":"69085","name":"QIANFAN-139","type":"PAYLOAD","l1":"1 69085U 26104N   26203.57864654 -.02034099  00000-0 -34420+1 0  9991","l2":"2 69085  88.9898 337.8563 0007890 341.3969  18.6892 13.49476581  9937"},{"id":"69086","name":"QIANFAN-140","type":"PAYLOAD","l1":"1 69086U 26104P   26203.88356654  .00000040  00000-0  43502-4 0  9992","l2":"2 69086  88.9903 337.8280 0001669  89.1683 270.9660 13.51024716  9971"},{"id":"69087","name":"QIANFAN-141","type":"PAYLOAD","l1":"1 69087U 26104Q   26203.90091214  .00000023  00000-0  15407-4 0  9998","l2":"2 69087  88.9898 337.8020 0007754 353.3264   6.7785 13.55525402  9996"},{"id":"69088","name":"QIANFAN-142","type":"PAYLOAD","l1":"1 69088U 26104R   26203.67779524  .00000028  00000-0  24753-4 0  9999","l2":"2 69088  88.9899 337.8154 0008329 349.5737  10.5240 13.50999098  9964"},{"id":"69089","name":"QIANFAN-143","type":"PAYLOAD","l1":"1 69089U 26104S   26203.39114446  .00000093  00000-0  11291-3 0  9999","l2":"2 69089  88.9908 337.8481 0009157 344.2099  15.8769 13.57520307  9922"},{"id":"69090","name":"QIANFAN-144","type":"PAYLOAD","l1":"1 69090U 26104T   26203.83007457  .00000091  00000-0  12305-3 0  9998","l2":"2 69090  88.9907 337.8192 0001671  99.9932 260.1408 13.51021289  9974"}]}